*******************************************************************************
Ephemeris / WWW_USER Mon Jul 15 19:04:50 2024 Pasadena, USA      / Horizons    
*******************************************************************************
Target body name: (2018 RD5)                      {source: JPL#11}
Center body name: Earth (399)                     {source: DE441}
Center-site name: Gemini South Obs., Cerro Pachon
*******************************************************************************
Start time      : A.D. 2018-Dec-25 23:55:00.0000 UT      
Stop  time      : A.D. 2018-Dec-26 09:31:00.0000 UT      
Step-size       : 1 minutes
*******************************************************************************
Target pole/equ : undefined
Target radii    : undefined                                                    
Center geodetic : 289.2634, -30.2406227, 2.71233  {E-lon(deg),Lat(deg),Alt(km)}
Center cylindric: 289.2634,5517.21435,-3194.81213 {E-lon(deg),Dxy(km),Dz(km)}
Center pole/equ : ITRF93                          {East-longitude positive}
Center radii    : 6378.137, 6378.137, 6356.752 km {Equator_a, b, pole_c}       
Target primary  : Sun
Vis. interferer : MOON (R_eq= 1737.400) km        {source: DE441}
Rel. light bend : Sun                             {source: DE441}
Rel. lght bnd GM: 1.3271E+11 km^3/s^2                                          
Small-body perts: Yes                             {source: SB441-N16}
Atmos refraction: NO (AIRLESS)
RA format       : HMS
Time format     : CAL 
Calendar mode   : Mixed Julian/Gregorian
RTS-only print  : NO       
EOP file        : eop.240715.p241008                                           
EOP coverage    : DATA-BASED 1962-JAN-20 TO 2024-JUL-15. PREDICTS-> 2024-OCT-07
Units conversion: 1 au= 149597870.700 km, c= 299792.458 km/s, 1 day= 86400.0 s 
Table cut-offs 1: Elevation (-90.0deg=NO ),Airmass (>38.000=NO), Daylight (YES)
Table cut-offs 2: Solar elongation (  0.0,180.0=NO ),Local Hour Angle( 0.0=NO )
Table cut-offs 3: RA/DEC angular rate (     0.0=NO )                           
*******************************************************************************
Initial IAU76/J2000 heliocentric ecliptic osculating elements (au, days, deg.):
  EPOCH=  2458378.5 ! 2018-Sep-17.00 (TDB)         Residual RMS= .55339        
   EC= .2891632988519429   QR= 1.009650912138325   TP= 2458360.6433297051      
   OM= 171.0145363394364   W=  163.7983400129293   IN= 8.474307805886117       
  Equivalent ICRF heliocentric cartesian coordinates (au, au/d):
   X= 1.017757009008053E+00  Y=-8.967367621791844E-02  Z=-4.840656937149759E-02
  VX= 3.309922676318766E-03 VY= 1.832358809606965E-02 VZ= 4.854018792897502E-03
Asteroid physical parameters (km, seconds, rotational period in hours):        
   GM= n.a.                RAD= n.a.               ROTPER= n.a.                
   H= 25.9                 G= .150                 B-V= n.a.                   
                           ALBEDO= n.a.            STYP= n.a.                  
*******************************************************************************
 Date__(UT)__HR:MN     R.A._________(ICRF)_________DEC
******************************************************
$$SOE
 2018-Dec-26 01:58     03 07 58.274220 -04 43 57.23352
 2018-Dec-26 01:59     03 07 58.308065 -04 43 56.34978
 2018-Dec-26 02:00     03 07 58.341913 -04 43 55.46602
 2018-Dec-26 02:01     03 07 58.375763 -04 43 54.58225
 2018-Dec-26 02:02     03 07 58.409617 -04 43 53.69846
 2018-Dec-26 02:03     03 07 58.443473 -04 43 52.81465
 2018-Dec-26 02:04     03 07 58.477332 -04 43 51.93082
 2018-Dec-26 02:05     03 07 58.511194 -04 43 51.04698
 2018-Dec-26 02:06     03 07 58.545060 -04 43 50.16312
 2018-Dec-26 02:07     03 07 58.578929 -04 43 49.27924
 2018-Dec-26 02:08     03 07 58.612801 -04 43 48.39534
 2018-Dec-26 02:09     03 07 58.646676 -04 43 47.51143
 2018-Dec-26 02:10     03 07 58.680555 -04 43 46.62750
 2018-Dec-26 02:11     03 07 58.714438 -04 43 45.74355
 2018-Dec-26 02:12     03 07 58.748324 -04 43 44.85959
 2018-Dec-26 02:13     03 07 58.782214 -04 43 43.97561
 2018-Dec-26 02:14     03 07 58.816107 -04 43 43.09161
 2018-Dec-26 02:15     03 07 58.850005 -04 43 42.20759
 2018-Dec-26 02:16     03 07 58.883906 -04 43 41.32356
 2018-Dec-26 02:17     03 07 58.917812 -04 43 40.43951
 2018-Dec-26 02:18     03 07 58.951721 -04 43 39.55544
 2018-Dec-26 02:19     03 07 58.985635 -04 43 38.67136
 2018-Dec-26 02:20     03 07 59.019553 -04 43 37.78725
 2018-Dec-26 02:21     03 07 59.053475 -04 43 36.90314
 2018-Dec-26 02:22     03 07 59.087402 -04 43 36.01900
 2018-Dec-26 02:23     03 07 59.121333 -04 43 35.13485
 2018-Dec-26 02:24     03 07 59.155268 -04 43 34.25068
 2018-Dec-26 02:25     03 07 59.189208 -04 43 33.36649
 2018-Dec-26 02:26     03 07 59.223153 -04 43 32.48229
 2018-Dec-26 02:27     03 07 59.257103 -04 43 31.59807
 2018-Dec-26 02:28     03 07 59.291057 -04 43 30.71383
 2018-Dec-26 02:29     03 07 59.325016 -04 43 29.82958
 2018-Dec-26 02:30     03 07 59.358981 -04 43 28.94531
 2018-Dec-26 02:31     03 07 59.392950 -04 43 28.06102
 2018-Dec-26 02:32     03 07 59.426924 -04 43 27.17671
 2018-Dec-26 02:33  m  03 07 59.460904 -04 43 26.29239
 2018-Dec-26 02:34  m  03 07 59.494889 -04 43 25.40806
 2018-Dec-26 02:35  m  03 07 59.528879 -04 43 24.52370
 2018-Dec-26 02:36  m  03 07 59.562875 -04 43 23.63933
 2018-Dec-26 02:37  m  03 07 59.596876 -04 43 22.75494
 2018-Dec-26 02:38  m  03 07 59.630883 -04 43 21.87054
 2018-Dec-26 02:39  m  03 07 59.664895 -04 43 20.98612
 2018-Dec-26 02:40  m  03 07 59.698913 -04 43 20.10168
 2018-Dec-26 02:41  m  03 07 59.732937 -04 43 19.21722
 2018-Dec-26 02:42  m  03 07 59.766967 -04 43 18.33275
 2018-Dec-26 02:43  m  03 07 59.801002 -04 43 17.44827
 2018-Dec-26 02:44  m  03 07 59.835044 -04 43 16.56376
 2018-Dec-26 02:45  m  03 07 59.869092 -04 43 15.67924
 2018-Dec-26 02:46  m  03 07 59.903146 -04 43 14.79471
 2018-Dec-26 02:47  m  03 07 59.937206 -04 43 13.91015
 2018-Dec-26 02:48  m  03 07 59.971272 -04 43 13.02558
 2018-Dec-26 02:49  m  03 08 00.005345 -04 43 12.14100
 2018-Dec-26 02:50  m  03 08 00.039424 -04 43 11.25640
 2018-Dec-26 02:51  m  03 08 00.073510 -04 43 10.37178
 2018-Dec-26 02:52  m  03 08 00.107602 -04 43 09.48715
 2018-Dec-26 02:53  m  03 08 00.141701 -04 43 08.60250
 2018-Dec-26 02:54  m  03 08 00.175807 -04 43 07.71783
 2018-Dec-26 02:55  m  03 08 00.209919 -04 43 06.83315
 2018-Dec-26 02:56  m  03 08 00.244039 -04 43 05.94845
 2018-Dec-26 02:57  m  03 08 00.278165 -04 43 05.06373
 2018-Dec-26 02:58  m  03 08 00.312298 -04 43 04.17900
 2018-Dec-26 02:59  m  03 08 00.346439 -04 43 03.29426
 2018-Dec-26 03:00  m  03 08 00.380586 -04 43 02.40950
 2018-Dec-26 03:01  m  03 08 00.414741 -04 43 01.52472
 2018-Dec-26 03:02  m  03 08 00.448903 -04 43 00.63992
 2018-Dec-26 03:03  m  03 08 00.483073 -04 42 59.75511
 2018-Dec-26 03:04  m  03 08 00.517250 -04 42 58.87029
 2018-Dec-26 03:05  m  03 08 00.551434 -04 42 57.98545
 2018-Dec-26 03:06  m  03 08 00.585626 -04 42 57.10059
 2018-Dec-26 03:07  m  03 08 00.619826 -04 42 56.21572
 2018-Dec-26 03:08  m  03 08 00.654033 -04 42 55.33083
 2018-Dec-26 03:09  m  03 08 00.688248 -04 42 54.44593
 2018-Dec-26 03:10  m  03 08 00.722471 -04 42 53.56101
 2018-Dec-26 03:11  m  03 08 00.756702 -04 42 52.67607
 2018-Dec-26 03:12  m  03 08 00.790941 -04 42 51.79112
 2018-Dec-26 03:13  m  03 08 00.825188 -04 42 50.90615
 2018-Dec-26 03:14  m  03 08 00.859443 -04 42 50.02117
 2018-Dec-26 03:15  m  03 08 00.893706 -04 42 49.13618
 2018-Dec-26 03:16  m  03 08 00.927978 -04 42 48.25117
 2018-Dec-26 03:17  m  03 08 00.962258 -04 42 47.36614
 2018-Dec-26 03:18  m  03 08 00.996546 -04 42 46.48110
 2018-Dec-26 03:19  m  03 08 01.030843 -04 42 45.59604
 2018-Dec-26 03:20  m  03 08 01.065149 -04 42 44.71097
 2018-Dec-26 03:21  m  03 08 01.099463 -04 42 43.82588
 2018-Dec-26 03:22  m  03 08 01.133785 -04 42 42.94078
 2018-Dec-26 03:23  m  03 08 01.168117 -04 42 42.05566
 2018-Dec-26 03:24  m  03 08 01.202457 -04 42 41.17053
 2018-Dec-26 03:25  m  03 08 01.236806 -04 42 40.28538
 2018-Dec-26 03:26  m  03 08 01.271164 -04 42 39.40022
 2018-Dec-26 03:27  m  03 08 01.305532 -04 42 38.51504
 2018-Dec-26 03:28  m  03 08 01.339908 -04 42 37.62985
 2018-Dec-26 03:29  m  03 08 01.374293 -04 42 36.74464
 2018-Dec-26 03:30  m  03 08 01.408688 -04 42 35.85942
 2018-Dec-26 03:31  m  03 08 01.443092 -04 42 34.97419
 2018-Dec-26 03:32  m  03 08 01.477505 -04 42 34.08894
 2018-Dec-26 03:33  m  03 08 01.511928 -04 42 33.20367
 2018-Dec-26 03:34  m  03 08 01.546360 -04 42 32.31839
 2018-Dec-26 03:35  m  03 08 01.580802 -04 42 31.43310
 2018-Dec-26 03:36  m  03 08 01.615253 -04 42 30.54779
 2018-Dec-26 03:37  m  03 08 01.649714 -04 42 29.66247
 2018-Dec-26 03:38  m  03 08 01.684185 -04 42 28.77713
 2018-Dec-26 03:39  m  03 08 01.718666 -04 42 27.89178
 2018-Dec-26 03:40  m  03 08 01.753156 -04 42 27.00641
 2018-Dec-26 03:41  m  03 08 01.787657 -04 42 26.12104
 2018-Dec-26 03:42  m  03 08 01.822167 -04 42 25.23564
 2018-Dec-26 03:43  m  03 08 01.856688 -04 42 24.35023
 2018-Dec-26 03:44  m  03 08 01.891218 -04 42 23.46481
 2018-Dec-26 03:45  m  03 08 01.925759 -04 42 22.57938
 2018-Dec-26 03:46  m  03 08 01.960310 -04 42 21.69393
 2018-Dec-26 03:47  m  03 08 01.994872 -04 42 20.80847
 2018-Dec-26 03:48  m  03 08 02.029444 -04 42 19.92299
 2018-Dec-26 03:49  m  03 08 02.064026 -04 42 19.03750
 2018-Dec-26 03:50  m  03 08 02.098619 -04 42 18.15199
 2018-Dec-26 03:51  m  03 08 02.133223 -04 42 17.26648
 2018-Dec-26 03:52  m  03 08 02.167837 -04 42 16.38095
 2018-Dec-26 03:53  m  03 08 02.202462 -04 42 15.49540
 2018-Dec-26 03:54  m  03 08 02.237097 -04 42 14.60984
 2018-Dec-26 03:55  m  03 08 02.271744 -04 42 13.72427
 2018-Dec-26 03:56  m  03 08 02.306401 -04 42 12.83869
 2018-Dec-26 03:57  m  03 08 02.341070 -04 42 11.95309
 2018-Dec-26 03:58  m  03 08 02.375749 -04 42 11.06748
 2018-Dec-26 03:59  m  03 08 02.410439 -04 42 10.18185
 2018-Dec-26 04:00  m  03 08 02.445141 -04 42 09.29621
